*******************************************************************************
Ephemeris / WWW_USER Tue Mar 27 22:19:26 2018 Pasadena, USA      / Horizons    
*******************************************************************************
Target body name: 136472 Makemake (2005 FY9)      {source: JPL#87}
Center body name: Solar System Barycenter (0)     {source: DE431}
Center-site name: BODY CENTER
*******************************************************************************
Start time      : A.D. 2018-Feb-08 00:00:00.0000 TDB
Stop  time      : A.D. 2028-Feb-08 00:00:00.0000 TDB
Step-size       : 7200 minutes
*******************************************************************************
Center geodetic : 0.00000000,0.00000000,0.0000000 {E-lon(deg),Lat(deg),Alt(km)}
Center cylindric: 0.00000000,0.00000000,0.0000000 {E-lon(deg),Dxy(km),Dz(km)}
Center radii    : (undefined)                                                  
Small perturbers: Yes                             {source: SB431-N16}
Output units    : AU-D                                                         
Output type     : GEOMETRIC cartesian states
Output format   : 2 (position and velocity)
Reference frame : ICRF/J2000.0                                                 
Coordinate systm: Ecliptic and Mean Equinox of Reference Epoch                 
*******************************************************************************
Initial IAU76/J2000 heliocentric ecliptic osculating elements (au, days, deg.):
  EPOCH=  2455873.5 ! 2011-Nov-08.00 (TDB)         Residual RMS= .33903        
   EC= .163243645764803    QR= 37.98936402578253   TP= 2408166.97804815        
   OM= 79.32583089553567   W=  296.2985095636197   IN= 29.01057544965225       
  Equivalent ICRF heliocentric equatorial cartesian coordinates (au, au/d):
   X=-4.573730857749887E+01  Y=-8.025010222974128E+00  Z= 2.392852066344231E+01
  VX=-2.959644349211270E-04 VY=-1.968679195449939E-03 VZ=-9.209610172847871E-04
Asteroid physical parameters (km, seconds, rotational period in hours):        
   GM= n.a.                RAD= n.a.               ROTPER= 22.48               
   H= -.200                G= .150                 B-V= n.a.                   
                           ALBEDO= n.a.            STYP= n.a.                  
*******************************************************************************
JDTDB
   X     Y     Z
   VX    VY    VZ
*******************************************************************************
$$SOE
2459452.500000000 = A.D. 2021-Aug-26 00:00:00.0000 TDB 
  -4.617949462206163E+01 -5.633513497798688E+00  2.459420551521175E+01
   4.634038172240665E-05 -2.164880938237025E-03 -2.451545682234666E-04
2459457.500000000 = A.D. 2021-Aug-31 00:00:00.0000 TDB 
  -4.617926174637353E+01 -5.644337759176168E+00  2.459297911721573E+01
   4.680989143511420E-05 -2.164823594622490E-03 -2.454046272190808E-04
2459462.500000000 = A.D. 2021-Sep-05 00:00:00.0000 TDB 
  -4.617902652316810E+01 -5.655161733563614E+00  2.459175146896926E+01
   4.727938864853342E-05 -2.164766142225148E-03 -2.456546683955691E-04
2459467.500000000 = A.D. 2021-Sep-10 00:00:00.0000 TDB 
  -4.617878895250789E+01 -5.665985420417128E+00  2.459052257056148E+01
   4.774887335023712E-05 -2.164708581052482E-03 -2.459046917465191E-04
2459472.500000000 = A.D. 2021-Sep-15 00:00:00.0000 TDB 
  -4.617854903445548E+01 -5.676808819192857E+00  2.458929242208152E+01
   4.821834552775851E-05 -2.164650911111824E-03 -2.461546972654776E-04
2459477.500000000 = A.D. 2021-Sep-20 00:00:00.0000 TDB 
  -4.617830676907351E+01 -5.687631929346982E+00  2.458806102361855E+01
   4.868780516870201E-05 -2.164593132410960E-03 -2.464046849460595E-04
2459482.500000000 = A.D. 2021-Sep-25 00:00:00.0000 TDB 
  -4.617806215642470E+01 -5.698454750335716E+00  2.458682837526180E+01
   4.915725226058040E-05 -2.164535244957244E-03 -2.466546547817878E-04
2459487.500000000 = A.D. 2021-Sep-30 00:00:00.0000 TDB 
  -4.617781519657185E+01 -5.709277281615309E+00  2.458559447710049E+01
   4.962668679091709E-05 -2.164477248758152E-03 -2.469046067661942E-04
2459492.500000000 = A.D. 2021-Oct-05 00:00:00.0000 TDB 
  -4.617756588957775E+01 -5.720099522642066E+00  2.458435932922390E+01
   5.009610874722255E-05 -2.164419143821158E-03 -2.471545408927967E-04
2459497.500000000 = A.D. 2021-Oct-10 00:00:00.0000 TDB 
  -4.617731423550534E+01 -5.730921472872309E+00  2.458312293172133E+01
   5.056551811699425E-05 -2.164360930153727E-03 -2.474044571550981E-04
2459502.500000000 = A.D. 2021-Oct-15 00:00:00.0000 TDB 
  -4.617706023441759E+01 -5.741743131762398E+00  2.458188528468213E+01
   5.103491488771664E-05 -2.164302607763324E-03 -2.476543555465858E-04
2459507.500000000 = A.D. 2021-Oct-20 00:00:00.0000 TDB 
  -4.617680388637749E+01 -5.752564498768748E+00  2.458064638819566E+01
   5.150429904702788E-05 -2.164244176657529E-03 -2.479042360608736E-04
2459512.500000000 = A.D. 2021-Oct-25 00:00:00.0000 TDB 
  -4.617654519144816E+01 -5.763385573347792E+00  2.457940624235134E+01
   5.197367058192294E-05 -2.164185636843452E-03 -2.481540986910342E-04
2459517.500000000 = A.D. 2021-Oct-30 00:00:00.0000 TDB 
  -4.617628414969274E+01 -5.774206354956015E+00  2.457816484723857E+01
   5.244302948000891E-05 -2.164126988328664E-03 -2.484039434306459E-04
2459522.500000000 = A.D. 2021-Nov-04 00:00:00.0000 TDB 
  -4.617602076117443E+01 -5.785026843049923E+00  2.457692220294686E+01
   5.291237572867493E-05 -2.164068231120574E-03 -2.486537702731041E-04
2459527.500000000 = A.D. 2021-Nov-09 00:00:00.0000 TDB 
  -4.617575502595655E+01 -5.795847037086076E+00  2.457567830956568E+01
   5.338170931529223E-05 -2.164009365226586E-03 -2.489035792117828E-04
2459532.500000000 = A.D. 2021-Nov-14 00:00:00.0000 TDB 
  -4.617548694410242E+01 -5.806666936521058E+00  2.457443316718459E+01
   5.385103022721396E-05 -2.163950390654095E-03 -2.491533702400400E-04
2459537.500000000 = A.D. 2021-Nov-19 00:00:00.0000 TDB 
  -4.617521651567542E+01 -5.817486540811498E+00  2.457318677589314E+01
   5.432033845158165E-05 -2.163891307410741E-03 -2.494031433509880E-04
2459542.500000000 = A.D. 2021-Nov-24 00:00:00.0000 TDB 
  -4.617494374073906E+01 -5.828305849414053E+00  2.457193913578094E+01
   5.478963397621011E-05 -2.163832115503250E-03 -2.496528985385238E-04
2459547.500000000 = A.D. 2021-Nov-29 00:00:00.0000 TDB 
  -4.617466861935685E+01 -5.839124861785431E+00  2.457069024693764E+01
   5.525891678822833E-05 -2.163772814939215E-03 -2.499026357957499E-04
2459552.500000000 = A.D. 2021-Dec-04 00:00:00.0000 TDB 
  -4.617439115159238E+01 -5.849943577382366E+00  2.456944010945288E+01
   5.572818687496246E-05 -2.163713405725938E-03 -2.501523551160007E-04
2459557.500000000 = A.D. 2021-Dec-09 00:00:00.0000 TDB 
  -4.617411133750933E+01 -5.860761995661622E+00  2.456818872341638E+01
   5.619744422372596E-05 -2.163653887870704E-03 -2.504020564925976E-04
2459562.500000000 = A.D. 2021-Dec-14 00:00:00.0000 TDB 
  -4.617382917717140E+01 -5.871580116080019E+00  2.456693608891787E+01
   5.666668882181966E-05 -2.163594261380787E-03 -2.506517399188492E-04
2459567.500000000 = A.D. 2021-Dec-19 00:00:00.0000 TDB 
  -4.617354467064238E+01 -5.882397938094385E+00  2.456568220604712E+01
   5.713592065621941E-05 -2.163534526263247E-03 -2.509014053877569E-04
2459572.500000000 = A.D. 2021-Dec-24 00:00:00.0000 TDB 
  -4.617325781798612E+01 -5.893215461161619E+00  2.456442707489393E+01
   5.760513971495339E-05 -2.163474682525794E-03 -2.511510528933159E-04
2459577.500000000 = A.D. 2021-Dec-29 00:00:00.0000 TDB 
  -4.617296861926654E+01 -5.904032684738625E+00  2.456317069554814E+01
   5.807434598503235E-05 -2.163414730175496E-03 -2.514006824285593E-04
2459582.500000000 = A.D. 2022-Jan-03 00:00:00.0000 TDB 
  -4.617267707454761E+01 -5.914849608282363E+00  2.456191306809961E+01
   5.854353945377294E-05 -2.163354669219603E-03 -2.516502939868090E-04
2459587.500000000 = A.D. 2022-Jan-08 00:00:00.0000 TDB 
  -4.617238318389336E+01 -5.925666231249823E+00  2.456065419263825E+01
   5.901272010848713E-05 -2.163294499665357E-03 -2.518998875613813E-04
2459592.500000000 = A.D. 2022-Jan-13 00:00:00.0000 TDB 
  -4.617208694736789E+01 -5.936482553098031E+00  2.455939406925398E+01
   5.948188793648239E-05 -2.163234221519989E-03 -2.521494631455887E-04
2459597.500000000 = A.D. 2022-Jan-18 00:00:00.0000 TDB 
  -4.617178836503540E+01 -5.947298573284054E+00  2.455813269803679E+01
   5.995104292530319E-05 -2.163173834790410E-03 -2.523990207330132E-04
2459602.500000000 = A.D. 2022-Jan-23 00:00:00.0000 TDB 
  -4.617148743696008E+01 -5.958114291264982E+00  2.455687007907667E+01
   6.042018506169579E-05 -2.163113339484532E-03 -2.526485603163274E-04
2459607.500000000 = A.D. 2022-Jan-28 00:00:00.0000 TDB 
  -4.617118416320622E+01 -5.968929706497952E+00  2.455560621246364E+01
   6.088931433313407E-05 -2.163052735609325E-03 -2.528980818890335E-04
2459612.500000000 = A.D. 2022-Feb-02 00:00:00.0000 TDB 
  -4.617087854383821E+01 -5.979744818440136E+00  2.455434109828780E+01
   6.135843072685879E-05 -2.162992023172040E-03 -2.531475854443700E-04
2459617.500000000 = A.D. 2022-Feb-07 00:00:00.0000 TDB 
  -4.617057057892045E+01 -5.990559626548747E+00  2.455307473663924E+01
   6.182753423010005E-05 -2.162931202179924E-03 -2.533970709755605E-04
2459622.500000000 = A.D. 2022-Feb-12 00:00:00.0000 TDB 
  -4.617026026851742E+01 -6.001374130281027E+00  2.455180712760809E+01
   6.229662483007730E-05 -2.162870272640222E-03 -2.536465384758194E-04
2459627.500000000 = A.D. 2022-Feb-17 00:00:00.0000 TDB 
  -4.616994761269367E+01 -6.012188329094249E+00  2.455053827128454E+01
   6.276570251399939E-05 -2.162809234560178E-03 -2.538959879383481E-04
2459632.500000000 = A.D. 2022-Feb-22 00:00:00.0000 TDB 
  -4.616963261151383E+01 -6.023002222445735E+00  2.454926816775879E+01
   6.323476726934384E-05 -2.162748087947277E-03 -2.541454193565948E-04
